ONEWEB-0371             
1 49297U 21090U   24128.89124912 -.00000006  00000+0 -46803-4 0  9998
2 49297  87.9122  98.2610 0002124  89.6692 270.4684 13.19724095124859
ONEWEB-0372             
1 49298U 21090V   24128.86629859  .00000088  00000+0  18328-3 0  9994
2 49298  87.9209  67.7173 0002016  85.7525 274.3838 13.20770779128156
ONEWEB-0373             
1 49299U 21090W   24128.89326717 -.00000006  00000+0 -47821-4 0  9998
2 49299  87.9208  67.7285 0001681  78.2743 281.8579 13.20771018129340
ONEWEB-0374             
1 49300U 21090X   24128.88287235 -.00000026  00000+0 -10521-3 0  9999
2 49300  87.8944  82.9712 0001852  82.7016 277.4324 13.14503441126360
ONEWEB-0375             
1 49301U 21090Y   24129.10791493  .00000037  00000+0  58355-4 0  9990
2 49301  87.9209  67.6616 0001944  59.8143 300.3183 13.20771774130162
ONEWEB-0376             
1 49302U 21090Z   24128.88967249  .00000007  00000+0 -14271-4 0  9996
2 49302  87.9114  98.2722 0002042  94.6340 265.5026 13.19724880124853
ONEWEB-0377             
1 49303U 21090AA  24129.54839104  .00000137  00000+0  30582-3 0  9994
2 49303  87.9209  67.5655 0002254  77.8965 282.2420 13.20771368130209
ONEWEB-0378             
1 49304U 21090AB  24128.88867727 -.00000098  00000+0 -27265-3 0  9995
2 49304  87.9210  67.6990 0001922  77.2206 282.9142 13.20770902128105
